NORAD_CAT_ID,OBJECT_NAME,OBJECT_TYPE,EPOCH,MEAN_MOTION,ECCENTRICITY,INCLINATION,RA_OF_ASC_NODE,ARG_OF_PERICENTER,MEAN_ANOMALY,BSTAR,MEAN_MOTION_DOT,MEAN_MOTION_DDOT,TLE_LINE0,TLE_LINE1,TLE_LINE2,SEMIMAJOR_AXIS,PERIOD,APOGEE,PERIGEE,DECAYED
53559.0,STARLINK-4508,PAYLOAD,2022-12-27 18:38:20,15.08858653,0.0002101,53.218,267.0896,54.3637,305.7551,0.00047124,7.223e-05,0.0,0 STARLINK-4508,1 53559U 22101AJ  22361.77662306  .00007223  00000-0  47124-3 0  9999,2 53559  53.2180 267.0896 0002101  54.3637 305.7551 15.08858653 19991,6917.823,95.436,541.1419999999998,538.235,0.0
53559.0,STARLINK-4508,PAYLOAD,2022-12-27 23:24:29,15.08869625,0.0002053,53.2178,266.1978,54.2083,305.91,0.00055722,8.598e-05,0.0,0 STARLINK-4508,1 53559U 22101AJ  22361.97533874  .00008598  00000-0  55722-3 0  9997,2 53559  53.2178 266.1978 0002053  54.2083 305.9100 15.08869625 20028,6917.79,95.436,541.075,538.235,0.0
53559.0,STARLINK-4508,PAYLOAD,2022-12-29 02:26:03,15.08838668,0.0001989,53.2173,261.143,50.2723,309.8445,-3.7034e-05,-8.78e-06,0.0,0 STARLINK-4508,1 53559U 22101AJ  22363.10142447 -.00000878  00000-0 -37034-4 0  9998,2 53559  53.2173 261.1430 0001989  50.2723 309.8445 15.08838668 20191,6917.884,95.438,541.125,538.373,0.0
53559.0,STARLINK-4508,PAYLOAD,2022-12-29 10:22:59,15.08810016,0.0001972,53.217,259.6561,47.9554,312.1605,-0.00054874,-9.004e-05,0.0,0 STARLINK-4508,1 53559U 22101AJ  22363.43262971 -.00009004  00000-0 -54874-3 0  9999,2 53559  53.2170 259.6561 0001972  47.9554 312.1605 15.08810016 20240,6917.972,95.439,541.201,538.4730000000002,0.0
53559.0,STARLINK-4508,PAYLOAD,2022-12-29 16:44:32,15.08809698,0.0002093,53.2173,258.467,49.9626,310.155,-0.00040617,-6.741e-05,0.0,0 STARLINK-4508,1 53559U 22101AJ  22363.69759832 -.00006741  00000-0 -40617-3 0  9999,2 53559  53.2173 258.4670 0002093  49.9626 310.1550 15.08809698 20283,6917.973000000001,95.439,541.286,538.39,0.0
53559.0,STARLINK-4508,PAYLOAD,2022-12-30 10:13:47,15.08837548,0.0001893,53.216,255.1946,44.7014,315.4131,0.00061014,9.435e-05,0.0,0 STARLINK-4508,1 53559U 22101AJ  22364.42624687  .00009435  00000-0  61014-3 0  9995,2 53559  53.2160 255.1946 0001893  44.7014 315.4131 15.08837548 20390,6917.888000000001,95.438,541.062,538.443,0.0
53559.0,STARLINK-4508,PAYLOAD,2022-12-31 00:32:15,15.08881507,0.000204,53.2164,252.5187,48.2083,311.9083,0.0019100999999999,0.00030277,0.0,0 STARLINK-4508,1 53559U 22101AJ  22365.02240172  .00030277  00000-0  19101-2 0  9992,2 53559  53.2164 252.5187 0002040  48.2083 311.9083 15.08881507 20483,6917.754,95.435,541.03,538.207,0.0
53559.0,STARLINK-4508,PAYLOAD,2022-12-31 10:04:33,15.08879721,0.0002158,53.2182,250.7347,48.3264,311.7912,0.0011857,0.00018653,0.0,0 STARLINK-4508,1 53559U 22101AJ  22365.41983400  .00018653  00000-0  11857-2 0  9997,2 53559  53.2182 250.7347 0002158  48.3264 311.7912 15.08879721 20544,6917.759,95.435,541.117,538.131,0.0
53559.0,STARLINK-4508,PAYLOAD,2022-12-31 18:01:29,15.08871543,0.0002184,53.2164,249.2478,43.522,316.5944,0.00056831,8.776e-05,0.0,0 STARLINK-4508,1 53559U 22101AJ  22365.75103041  .00008776  00000-0  56831-3 0  9996,2 53559  53.2164 249.2478 0002184  43.5220 316.5944 15.08871543 20597,6917.784000000002,95.436,541.16,538.138,0.0
53559.0,STARLINK-4508,PAYLOAD,2023-01-01 01:58:24,15.08849018,0.0001728,53.217,247.7631,42.1129,317.9996,0.00065524,0.00010158,0.0,0 STARLINK-4508,1 53559U 22101AJ  23001.08222867  .00010158  00000-0  65524-3 0  9994,2 53559  53.2170 247.7631 0001728  42.1129 317.9996 15.08849018 20644,6917.853,95.437,540.913,538.5219999999998,0.0
53559.0,STARLINK-4508,PAYLOAD,2023-01-01 09:55:20,15.088223499999998,0.0002013,53.2164,246.2749,41.3524,318.7621,0.0002688,3.99e-05,0.0,0 STARLINK-4508,1 53559U 22101AJ  23001.41343669  .00003990  00000-0  26880-3 0  9993,2 53559  53.2164 246.2749 0002013  41.3524 318.7621 15.08822350 20698,6917.934,95.439,541.192,538.4069999999998,0.0
53559.0,STARLINK-4508,PAYLOAD,2023-01-01 22:38:26,15.08821024,0.0002190999999999,53.2161,243.8949,53.2531,306.8662,0.00026804,3.978e-05,0.0,0 STARLINK-4508,1 53559U 22101AJ  23001.94336626  .00003978  00000-0  26804-3 0  9998,2 53559  53.2161 243.8949 0002191  53.2531 306.8662 15.08821024 20776,6917.938,95.439,541.319,538.288,0.0
53559.0,STARLINK-4508,PAYLOAD,2023-01-02 01:49:13,15.0881658,0.0002009999999999,53.2175,243.3002,46.9791,313.137,0.00027382,4.07e-05,0.0,0 STARLINK-4508,1 53559U 22101AJ  23002.07584910  .00004070  00000-0  27382-3 0  9990,2 53559  53.2175 243.3002 0002010  46.9791 313.1370 15.08816580 20793,6917.9519999999975,95.439,541.207,538.4259999999998,0.0
53559.0,STARLINK-4508,PAYLOAD,2023-01-02 22:29:14,15.08836071,0.0002044999999999,53.2172,239.4352,46.4786,313.6376,0.00059454,9.186e-05,0.0,0 STARLINK-4508,1 53559U 22101AJ  23002.93697443  .00009186  00000-0  59454-3 0  9999,2 53559  53.2172 239.4352 0002045  46.4786 313.6376 15.08836071 20924,6917.892,95.438,541.172,538.3430000000002,0.0
53559.0,STARLINK-4508,PAYLOAD,2023-01-03 01:40:00,15.08837805,0.0002056999999999,53.2172,238.84,45.8706,314.2455,0.00053183,8.186e-05,0.0,0 STARLINK-4508,1 53559U 22101AJ  23003.06945400  .00008186  00000-0  53183-3 0  9995,2 53559  53.2172 238.8400 0002057  45.8706 314.2455 15.08837805 20942,6917.887,95.438,541.175,538.3290000000002,0.0
53559.0,STARLINK-4508,PAYLOAD,2023-01-03 08:01:33,15.08845674,0.0002006999999999,53.2172,237.6511,46.9421,313.1739,0.00051593,7.934e-05,0.0,0 STARLINK-4508,1 53559U 22101AJ  23003.33441110  .00007934  00000-0  51593-3 0  9997,2 53559  53.2172 237.6511 0002007  46.9421 313.1739 15.08845674 20983,6917.863,95.437,541.116,538.34,0.0
53559.0,STARLINK-4508,PAYLOAD,2023-01-04 07:52:20,15.08850567,0.0002053,53.2168,233.1911,47.9022,312.2145,0.00033184,4.999e-05,0.0,0 STARLINK-4508,1 53559U 22101AJ  23004.32800952  .00004999  00000-0  33184-3 0  9994,2 53559  53.2168 233.1911 0002053  47.9022 312.2145 15.08850567 21138,6917.848000000001,95.437,541.133,538.293,0.0
53559.0,STARLINK-4508,PAYLOAD,2023-01-04 22:10:47,15.0886293,0.0002101,53.2176,230.5151,49.1677,310.9497,0.00045189,6.916e-05,0.0,0 STARLINK-4508,1 53559U 22101AJ  23004.92416099  .00006916  00000-0  45189-3 0  9994,2 53559  53.2176 230.5151 0002101  49.1677 310.9497 15.08862930 21220,6917.81,95.436,541.129,538.222,0.0
53559.0,STARLINK-4508,PAYLOAD,2023-01-05 14:04:38,15.08857233,0.0002035,53.2175,227.5414,48.5327,311.584,0.00022447,3.288e-05,0.0,0 STARLINK-4508,1 53559U 22101AJ  23005.58655664  .00003288  00000-0  22447-3 0  9991,2 53559  53.2175 227.5414 0002035  48.5327 311.5840 15.08857233 21328,6917.828,95.436,541.1,538.285,0.0
53559.0,STARLINK-4508,PAYLOAD,2023-01-05 15:40:01,15.08859669,0.0002072,53.2152,227.2431,46.4309,313.6854,0.00028163,4.199e-05,0.0,0 STARLINK-4508,1 53559U 22101AJ  23005.65279519  .00004199  00000-0  28163-3 0  9993,2 53559  53.2152 227.2431 0002072  46.4309 313.6854 15.08859669 21331,6917.82,95.436,541.119,538.252,0.0
53559.0,STARLINK-4508,PAYLOAD,2023-01-06 07:33:53,15.08836776,0.0002096,53.217,224.2682,49.7035,310.414,-0.00014723,-2.631e-05,0.0,0 STARLINK-4508,1 53559U 22101AJ  23006.31519776 -.00002631  00000-0 -14723-3 0  9997,2 53559  53.2170 224.2682 0002096  49.7035 310.4140 15.08836776 21432,6917.89,95.438,541.205,538.305,0.0
53559.0,STARLINK-4508,PAYLOAD,2023-01-06 13:55:25,15.08830757,0.000209,53.2165,223.0792,49.2276,310.8897,6.9173e-05,8.13e-06,0.0,0 STARLINK-4508,1 53559U 22101AJ  23006.58016098  .00000813  00000-0  69173-4 0  9993,2 53559  53.2165 223.0792 0002090  49.2276 310.8897 15.08830757 21471,6917.9090000000015,95.438,541.219,538.328,0.0
53559.0,STARLINK-4508,PAYLOAD,2023-01-06 23:27:44,15.08838721,0.0002168,53.2142,221.2951,50.6868,309.4316,0.00017334,2.471e-05,0.0,0 STARLINK-4508,1 53559U 22101AJ  23006.97760148  .00002471  00000-0  17334-3 0  9991,2 53559  53.2142 221.2951 0002168  50.6868 309.4316 15.08838721 21538,6917.884,95.438,541.249,538.25,0.0
53559.0,STARLINK-4508,PAYLOAD,2023-01-07 20:07:45,15.08838724,0.0002228,53.2144,217.4299,51.0567,309.0623,0.00023894,3.516e-05,0.0,0 STARLINK-4508,1 53559U 22101AJ  23007.83872597  .00003516  00000-0  23894-3 0  9998,2 53559  53.2144 217.4299 0002228  51.0567 309.0623 15.08838724 21664,6917.884,95.438,541.2909999999998,538.2080000000002,0.0
53559.0,STARLINK-4508,PAYLOAD,2023-01-08 07:15:28,15.08832205,0.000211,53.2153,215.3486,49.2317,310.8858,0.00013514,1.863e-05,0.0,0 STARLINK-4508,1 53559U 22101AJ  23008.30241069  .00001863  00000-0  13514-3 0  9996,2 53559  53.2153 215.3486 0002110  49.2317 310.8858 15.08832205 21737,6917.904,95.438,541.229,538.31,0.0
53559.0,STARLINK-4508,PAYLOAD,2023-01-08 13:37:00,15.08836073,0.0002105,53.2154,214.159,48.3106,311.8066,0.00020038,2.902e-05,0.0,0 STARLINK-4508,1 53559U 22101AJ  23008.56737110  .00002902  00000-0  20038-3 0  9995,2 53559  53.2154 214.1590 0002105  48.3106 311.8066 15.08836073 21774,6917.892,95.438,541.214,538.3009999999998,0.0
53559.0,STARLINK-4508,PAYLOAD,2023-01-08 19:58:33,15.08841232,0.0002117,53.2154,212.9699,48.286,311.8313,0.00026714,3.966e-05,0.0,0 STARLINK-4508,1 53559U 22101AJ  23008.83232981  .00003966  00000-0  26714-3 0  9999,2 53559  53.2154 212.9699 0002117  48.2860 311.8313 15.08841232 21812,6917.877,95.437,541.206,538.2769999999998,0.0
53559.0,STARLINK-4508,PAYLOAD,2023-01-08 23:09:19,15.0884253,0.0002056,53.2156,212.3747,49.0795,311.0375,0.00026344,3.907e-05,0.0,0 STARLINK-4508,1 53559U 22101AJ  23008.96480944  .00003907  00000-0  26344-3 0  9991,2 53559  53.2156 212.3747 0002056  49.0795 311.0375 15.08842530 21834,6917.873000000001,95.437,541.16,538.315,0.0
53559.0,STARLINK-4508,PAYLOAD,2023-01-09 16:38:34,15.08841856,0.0002118,53.2149,209.1038,47.1194,312.9975,0.00025982,3.85e-05,0.0,0 STARLINK-4508,1 53559U 22101AJ  23009.69345091  .00003850  00000-0  25982-3 0  9999,2 53559  53.2149 209.1038 0002118  47.1194 312.9975 15.08841856 21942,6917.875,95.437,541.205,538.275,0.0
